[{"OBJECT_NAME":"YAOGAN-30 11A","OBJECT_ID":"2021-065A","EPOCH":"2026-03-09T17:03:27.605952","MEAN_MOTION":15.0211069,"ECCENTRICITY":0.00046738,"INCLINATION":34.9929,"RA_OF_ASC_NODE":159.1721,"ARG_OF_PERICENTER":355.4238,"MEAN_ANOMALY":4.6427,"EPHEMERIS_TYPE":0,"CLASSIFICATION_TYPE":"U","NORAD_CAT_ID":49026,"ELEMENT_SET_NO":999,"REV_AT_EPOCH":25367,"BSTAR":0.00035664483,"MEAN_MOTION_DOT":4.757e-5,"MEAN_MOTION_DDOT":0},{"OBJECT_NAME":"CZ-6A DEB","OBJECT_ID":"2022-151EM","EPOCH":"2026-03-09T21:12:10.844640","MEAN_MOTION":15.1479521,"ECCENTRICITY":0.00732342,"INCLINATION":98.809,"RA_OF_ASC_NODE":212.6624,"ARG_OF_PERICENTER":10.5605,"MEAN_ANOMALY":349.714,"EPHEMERIS_TYPE":0,"CLASSIFICATION_TYPE":"U","NORAD_CAT_ID":54413,"ELEMENT_SET_NO":999,"REV_AT_EPOCH":17915,"BSTAR":0.0020661814,"MEAN_MOTION_DOT":0.00041137,"MEAN_MOTION_DDOT":0}]
